NORAD_CAT_ID,OBJECT_NAME,OBJECT_TYPE,EPOCH,MEAN_MOTION,ECCENTRICITY,INCLINATION,RA_OF_ASC_NODE,ARG_OF_PERICENTER,MEAN_ANOMALY,BSTAR,MEAN_MOTION_DOT,MEAN_MOTION_DDOT,TLE_LINE0,TLE_LINE1,TLE_LINE2,SEMIMAJOR_AXIS,PERIOD,APOGEE,PERIGEE,DECAYED
51980.0,STARLINK-3649,PAYLOAD,2023-09-16 23:02:19,15.08840014,0.0001545,53.2173,140.6069,97.548,262.5688,0.00014516,2.023e-05,0.0,0 STARLINK-3649,1 51980U 22025AA  23259.95994940  .00002023  00000-0  14516-3 0  9991,2 51980  53.2173 140.6069 0001545  97.5480 262.5688 15.08840014 85562,6917.88,95.438,540.814,538.677,0.0
51980.0,STARLINK-3649,PAYLOAD,2023-09-18 02:03:52,15.08852841,0.0001518,53.2172,135.5524,94.1173,265.9992,0.00019239,2.776e-05,0.0,0 STARLINK-3649,1 51980U 22025AA  23261.08602238  .00002776  00000-0  19239-3 0  9996,2 51980  53.2172 135.5524 0001518  94.1173 265.9992 15.08852841 85737,6917.841,95.437,540.756,538.656,0.0
51980.0,STARLINK-3649,PAYLOAD,2023-09-18 21:08:30,15.08841211,0.0001543,53.2168,131.9806,98.4371,261.6796,6.359e-05,7.24e-06,0.0,0 STARLINK-3649,1 51980U 22025AA  23261.88090876  .00000724  00000-0  63590-4 0  9994,2 51980  53.2168 131.9806 0001543  98.4371 261.6796 15.08841211 84766,6917.877,95.437,540.809,538.674,0.0
51980.0,STARLINK-3649,PAYLOAD,2023-09-18 22:43:53,15.08842093,0.0001504,53.2167,131.6905,103.3258,256.7901,0.00010398,1.367e-05,0.0,0 STARLINK-3649,1 51980U 22025AA  23261.94714824  .00001367  00000-0  10398-3 0  9998,2 51980  53.2167 131.6905 0001504 103.3258 256.7901 15.08842093 85863,6917.874,95.437,540.779,538.699,0.0
51980.0,STARLINK-3649,PAYLOAD,2023-09-20 00:10:02,15.08865276,0.0001324,53.2151,126.9318,98.3949,261.7194,0.00071607,0.00011134,0.0,0 STARLINK-3649,1 51980U 22025AA  23263.00697734  .00011134  00000-0  71607-3 0  9990,2 51980  53.2151 126.9318 0001324  98.3949 261.7194 15.08865276 86028,6917.803,95.436,540.584,538.752,0.0
51980.0,STARLINK-3649,PAYLOAD,2023-09-20 19:14:41,15.08826307,0.0001158,53.2149,123.3634,90.927,269.1854,-0.0001979,-3.435e-05,0.0,0 STARLINK-3649,1 51980U 22025AA  23263.80187148 -.00003435  00000-0 -19790-3 0  9993,2 51980  53.2149 123.3634 0001158  90.9270 269.1854 15.08826307 86147,6917.922,95.438,540.588,538.986,0.0
51980.0,STARLINK-3649,PAYLOAD,2023-09-20 20:50:04,15.0882437,0.000135,53.2148,123.0662,107.1584,252.9556,-8.1169e-05,-1.579e-05,0.0,0 STARLINK-3649,1 51980U 22025AA  23263.86811158 -.00001579  00000-0 -81169-4 0  9991,2 51980  53.2148 123.0662 0001350 107.1584 252.9556 15.08824370 85064,6917.928,95.439,540.727,538.859,0.0
51980.0,STARLINK-3649,PAYLOAD,2023-09-21 00:00:51,15.08822707,0.0001307,53.2148,122.4714,88.5337,271.5805,0.00012579,1.714e-05,0.0,0 STARLINK-3649,1 51980U 22025AA  23264.00059505  .00001714  00000-0  12579-3 0  9995,2 51980  53.2148 122.4714 0001307  88.5337 271.5805 15.08822707 85083,6917.933,95.439,540.702,538.894,0.0
51980.0,STARLINK-3649,PAYLOAD,2023-09-21 19:05:29,15.08838939,0.000134,53.2154,118.9016,81.7528,278.3616,0.00074139,0.00011531,0.0,0 STARLINK-3649,1 51980U 22025AA  23264.79548064  .00011531  00000-0  74139-3 0  9992,2 51980  53.2154 118.9016 0001340  81.7528 278.3616 15.08838939 86292,6917.884,95.438,540.676,538.822,0.0
51980.0,STARLINK-3649,PAYLOAD,2023-09-21 22:16:15,15.08847039,0.0001292,53.215,118.306,100.5164,259.5974,0.00094642,0.00014809,0.0,0 STARLINK-3649,1 51980U 22025AA  23264.92795864  .00014809  00000-0  94642-3 0  9991,2 51980  53.2150 118.3060 0001292 100.5164 259.5974 15.08847039 85224,6917.859,95.437,540.618,538.83,0.0
51980.0,STARLINK-3649,PAYLOAD,2023-09-22 20:31:39,15.08858063,0.0001404,53.2159,114.1425,84.5692,275.5461,0.00065388,0.00010139,0.0,0 STARLINK-3649,1 51980U 22025AA  23265.85531427  .00010139  00000-0  65388-3 0  9994,2 51980  53.2159 114.1425 0001404  84.5692 275.5461 15.08858063 85367,6917.825,95.436,540.661,538.719,0.0
51980.0,STARLINK-3649,PAYLOAD,2023-09-22 23:42:25,15.08862112,0.0001413,53.216,113.5475,84.8291,275.2863,0.00073773,0.0001148,0.0,0 STARLINK-3649,1 51980U 22025AA  23265.98779233  .00011480  00000-0  73773-3 0  9994,2 51980  53.2160 113.5475 0001413  84.8291 275.2863 15.08862112 86471,6917.813,95.436,540.655,538.7,0.0
51980.0,STARLINK-3649,PAYLOAD,2023-09-23 18:47:02,15.08850516,0.0001325,53.2166,109.9777,100.6367,259.4775,0.00026993,4.012e-05,0.0,0 STARLINK-3649,1 51980U 22025AA  23266.78267161  .00004012  00000-0  26993-3 0  9990,2 51980  53.2166 109.9777 0001325 100.6367 259.4775 15.08850516 86598,6917.848,95.437,540.63,538.797,0.0
51980.0,STARLINK-3649,PAYLOAD,2023-09-24 13:51:40,15.08841731,0.0001342,53.2167,106.4084,102.3828,257.7314,0.00010656,1.408e-05,0.0,0 STARLINK-3649,1 51980U 22025AA  23267.57755240  .00001408  00000-0  10656-3 0  9993,2 51980  53.2167 106.4084 0001342 102.3828 257.7314 15.08841731 85624,6917.875,95.437,540.668,538.812,0.0
51980.0,STARLINK-3649,PAYLOAD,2023-09-24 17:02:26,15.08842199,0.0001343,53.2164,105.8138,103.2569,256.8573,3.3151e-05,2.4e-06,0.0,0 STARLINK-3649,1 51980U 22025AA  23267.71003270  .00000240  00000-0  33151-4 0  9997,2 51980  53.2164 105.8138 0001343 103.2569 256.8573 15.08842199 86736,6917.874,95.437,540.668,538.81,0.0
51980.0,STARLINK-3649,PAYLOAD,2023-09-24 20:13:13,15.08842927,0.0001358,53.2165,105.2189,104.3348,255.7795,5.7332e-05,6.25e-06,0.0,0 STARLINK-3649,1 51980U 22025AA  23267.84251217  .00000625  00000-0  57332-4 0  9991,2 51980  53.2165 105.2189 0001358 104.3348 255.7795 15.08842927 85664,6917.871,95.437,540.676,538.797,0.0
51980.0,STARLINK-3649,PAYLOAD,2023-09-25 12:07:04,15.08839866,0.0001269,53.2163,102.249,93.6175,266.4963,0.00010471,1.379e-05,0.0,0 STARLINK-3649,1 51980U 22025AA  23268.50491462  .00001379  00000-0  10471-3 0  9992,2 51980  53.2163 102.2490 0001269  93.6175 266.4963 15.08839866 85768,6917.881,95.438,540.624,538.868,0.0
51980.0,STARLINK-3649,PAYLOAD,2023-09-25 18:28:38,15.08812753,0.0001464,53.2173,101.0596,94.6105,265.5055,0.0008884,0.00013869,0.0,0 STARLINK-3649,1 51980U 22025AA  23268.76988848  .00013869  00000-0  88840-3 0  9991,2 51980  53.2173 101.0596 0001464  94.6105 265.5055 15.08812753 86897,6917.964,95.439,540.841,538.816,0.0
51980.0,STARLINK-3649,PAYLOAD,2023-09-25 23:14:47,15.08822757,0.0001492,53.2175,100.1669,95.341,264.7752,0.00076015,0.00011825,0.0,0 STARLINK-3649,1 51980U 22025AA  23268.96860486  .00011825  00000-0  76015-3 0  9991,2 51980  53.2175 100.1669 0001492  95.3410 264.7752 15.08822757 86922,6917.933,95.439,540.83,538.766,0.0
51980.0,STARLINK-3649,PAYLOAD,2023-09-26 13:33:15,15.088301,0.0001541,53.2173,97.4909,99.9711,260.1455,-5.2295e-05,-1.12e-05,0.0,0 STARLINK-3649,1 51980U 22025AA  23269.56476230 -.00001120  00000-0 -52295-4 0  9992,2 51980  53.2173  97.4909 0001541  99.9711 260.1455 15.08830100 85924,6917.911,95.438,540.842,538.71,0.0
51980.0,STARLINK-3649,PAYLOAD,2023-09-26 19:54:47,15.08833717,0.0001426,53.2171,96.2949,102.3688,257.7464,-5.4492e-06,-3.75e-06,0.0,0 STARLINK-3649,1 51980U 22025AA  23269.82972089 -.00000375  00000-0 -54492-5 0  9997,2 51980  53.2171  96.2949 0001426 102.3688 257.7464 15.08833717 85960,6917.9,95.438,540.751,538.778,0.0
51980.0,STARLINK-3649,PAYLOAD,2023-09-27 05:27:06,15.08838514,0.0001194,53.2167,94.5169,96.5832,263.5296,2.0044e-05,3.1e-07,0.0,0 STARLINK-3649,1 51980U 22025AA  23270.22716033  .00000031  00000-0  20044-4 0  9990,2 51980  53.2167  94.5169 0001194  96.5832 263.5296 15.08838514 87114,6917.885,95.438,540.576,538.924,0.0
51980.0,STARLINK-3649,PAYLOAD,2023-09-27 11:48:39,15.0883567,0.0001455,53.2176,93.3283,89.3566,270.7593,9.4379e-05,1.214e-05,0.0,0 STARLINK-3649,1 51980U 22025AA  23270.49212386  .00001214  00000-0  94379-4 0  9997,2 51980  53.2176  93.3283 0001455  89.3566 270.7593 15.08835670 86065,6917.894,95.438,540.765,538.752,0.0
51980.0,STARLINK-3649,PAYLOAD,2023-09-28 11:39:26,15.08844202,0.0001326,53.2154,88.8671,83.2112,276.9031,0.00028533,4.257e-05,0.0,0 STARLINK-3649,1 51980U 22025AA  23271.48572309  .00004257  00000-0  28533-3 0  9999,2 51980  53.2154  88.8671 0001326  83.2112 276.9031 15.08844202 87302,6917.868,95.437,540.65,538.815,0.0
51980.0,STARLINK-3649,PAYLOAD,2023-09-28 21:11:44,15.08853504,0.0001285,53.2156,87.0829,82.2899,277.8239,0.00035462,5.362e-05,0.0,0 STARLINK-3649,1 51980U 22025AA  23271.88315838  .00005362  00000-0  35462-3 0  9992,2 51980  53.2156  87.0829 0001285  82.2899 277.8239 15.08853504 86275,6917.839,95.437,540.593,538.815,0.0
51980.0,STARLINK-3649,PAYLOAD,2023-09-29 11:30:13,15.088413,0.0001317,53.2155,84.4057,87.9471,272.1671,7.4874e-05,9.04e-06,0.0,0 STARLINK-3649,1 51980U 22025AA  23272.47932153  .00000904  00000-0  74874-4 0  9991,2 51980  53.2155  84.4057 0001317  87.9471 272.1671 15.08841300 87452,6917.876,95.437,540.652,538.83,0.0
51980.0,STARLINK-3649,PAYLOAD,2023-09-29 17:51:45,15.08847455,0.000142,53.216,83.2164,93.9446,266.1708,0.00015627,2.2e-05,0.0,0 STARLINK-3649,1 51980U 22025AA  23272.74427880  .00002200  00000-0  15627-3 0  9998,2 51980  53.2160  83.2164 0001420  93.9446 266.1708 15.08847455 87493,6917.858,95.437,540.705,538.74,0.0
51980.0,STARLINK-3649,PAYLOAD,2023-09-30 17:42:32,15.08848032,0.0001401,53.2162,78.7568,87.1544,272.9608,-3.02e-05,-7.69e-06,0.0,0 STARLINK-3649,1 51980U 22025AA  23273.73787762 -.00000769  00000-0 -30200-4 0  9991,2 51980  53.2162  78.7568 0001401  87.1544 272.9608 15.08848032 87648,6917.856,95.437,540.69,538.752,0.0
51980.0,STARLINK-3649,PAYLOAD,2023-10-01 11:11:47,15.08850179,0.0001561,53.2169,75.4836,94.6888,265.4283,-4.6466e-05,-1.028e-05,0.0,0 STARLINK-3649,1 51980U 22025AA  23274.46651675 -.00001028  00000-0 -46466-4 0  9995,2 51980  53.2169  75.4836 0001561  94.6888 265.4283 15.08850179 86660,6917.849,95.437,540.794,538.634,0.0
51980.0,STARLINK-3649,PAYLOAD,2023-10-01 17:33:21,15.08815113,0.0001809,53.2173,74.2944,92.8913,267.2286,0.0011668,0.00018318,0.0,0 STARLINK-3649,1 51980U 22025AA  23274.73149678  .00018318  00000-0  11668-2 0  9992,2 51980  53.2173  74.2944 0001809  92.8913 267.2286 15.08815113 87793,6917.956,95.439,541.073,538.57,0.0
